street,postalcode,city,province,country
343 Caleigh Walk,78920,Pine Bluff,Wyoming,Belize
239 Kerluke Port,83966,Rathland,Ohio,Saint Helena
73925 Bechtelar Ramp,00255-6212,Leonorville,Oklahoma,Ukraine
2145 Prohaska Grove,75781-1716,Mohrberg,Iowa,Indonesia
7448 Doyle Islands,19185-8400,Palm Harbor,Iowa,Czech Republic
4615 Jamal Fort,82965-8182,Myratown,Alabama,Congo
13232 Aaliyah Curve,64854,Broomfield,New Hampshire,Chad
13214 Kunde Estates,26562-3958,Everett,Utah,Aruba
6632 Austen Loaf,57587-6438,South Dustinton,Washington,Mauritania
25293 Randall Shoal,35991-9180,Aidanstad,New Hampshire,Egypt
2900 Nienow Isle,25530-5144,Schuppetown,Idaho,France
809 Francesco Meadow,97565-6738,East Gaylord,Connecticut,Puerto Rico
9980 Steuber Crescent,68684,Ulisesport,Hawaii,Jamaica
97000 Hickle Plaza,5255,East Marina,Indiana,Lesotho
48011 Elmore Coves,04648-1998,North Ceasarmouth,Ohio,Uruguay
9948 Madison Extension,65801-5785,Lynchburg,Vermont,Cameroon
91004 Kennedy Shores,12224,West Gabeton,Kentucky,Trinidad and Tobago
63845 Hodkiewicz Ports,79153-9279,South Herminia,Vermont,Kenya
86248 Moore Throughway,96756,Langoshbury,Washington,Niue
79204 Hackett Burgs,33485-2414,Streichport,North Dakota,"Virgin Islands, U.S."
53434 Gail Mews,84118-8690,Rodville,North Carolina,Seychelles
381 Kellen Trace,90901-1596,Ludwigville,Wyoming,Barbados
8569 Alexanne Rapid,64772-7217,Tustin,Kansas,Madagascar
30070 London Freeway,15247,Gersonbury,Texas,French Southern Territories
5413 Julius Tunnel,52365-0129,Abernathyburgh,Idaho,Mauritius
447 Fahey Islands,52509-1788,Wilkinsonburgh,Georgia,Bouvet Island (Bouvetoya)
7317 Monty Prairie,01628-7702,Lake Kurtis,Wyoming,United States of America
0930 Mills Oval,04580-9583,Lake Daronmouth,Virginia,Bahrain
21808 Eliza Freeway,64622,Lake Dawn,North Carolina,Ethiopia
702 Carleton Mountains,36605-5903,Marvinland,Iowa,Japan
026 Rowe Estates,21635-6973,Franklin,Nevada,Germany
2392 Dickens Terrace,5053,North Adan,South Dakota,Chile
840 Marshall Inlet,13915-3861,Schulistborough,Tennessee,Slovenia
1097 Heathcote Courts,45269,East Los Angeles,New Mexico,Cook Islands
17854 Hilda Village,58018-8153,Daughertyport,Texas,Iraq
3930 Mellie Road,41820-7310,East Haskellville,Nevada,Bahrain
25534 Block Cliffs,58566-6219,East Craighaven,Mississippi,Heard Island and McDonald Islands
6182 Kuphal Junction,33154,New Helena,Maine,Belarus
5939 Elna Avenue,07433-1160,Beckertown,Maryland,Svalbard & Jan Mayen Islands
3485 Frieda Key,66315-1814,Johnpaulland,Massachusetts,Dominican Republic
24732 Gutkowski Rue,62370-0135,Stephanyview,Maryland,Brunei Darussalam
49128 Ofelia Union,55240,Eastvale,Pennsylvania,Eritrea
6906 Purdy Flats,67127-1357,Arlington Heights,Minnesota,Dominican Republic
632 Ryan Viaduct,68151-5245,Noblehaven,New Hampshire,Syrian Arab Republic
85342 Schultz Wall,45178,Athens-Clarke County,Hawaii,Uganda
0463 Gage Valleys,78148,Rennerburgh,Wisconsin,Ireland
756 Miller Island,89233-2463,Elmhurst,California,Equatorial Guinea
362 Madison Manor,72963,Kovacekberg,Oklahoma,Poland
625 Harris Ports,61041,West Zion,South Carolina,Ireland
192 Bauch Branch,81305,New Mathewborough,Arizona,Bulgaria
1171 Euismod Road,88811,Overland Park,,United States
"P.O. Box 487, 2719 Non, Avenue",16941,Cobourg,Rio Grande do Sul,Brazil
Ap #790-283 Imperdiet Rd.,367348,Albury,Victoria,United Kingdom
372-4356 Lectus St.,735044,Imphal,Lorraine,Turkey
752-6458 Vulputate Av.,41886,Poggiodomo,North Island,Australia
